{"type":"FeatureCollection","features":[{"type":"Feature","properties":{"name":"Alberta","iso_a2":"CA","iso_n3":"124"},"geometry":{"type":"Polygon","coordinates":[[[-109.999432,48.993083],[-110.321299,48.993083],[-110.747678,48.993083],[-111.174063,48.993083],[-111.600442,48.993083],[-112.026827,48.993083],[-112.453207,48.993083],[-112.879592,48.993083],[-113.305971,48.993083],[-113.732356,48.993083],[-114.062517,48.993083],[-114.050602,49.014627],[-114.057474,49.037962],[-114.132538,49.094058],[-114.163674,49.14677],[-114.189794,49.168062],[-114.354847,49.210689],[-114.378154,49.232266],[-114.386163,49.25203],[-114.425906,49.27441],[-114.479646,49.333428],[-114.565224,49.393886],[-114.588015,49.420319],[-114.590053,49.451707],[-114.576254,49.518658],[-114.577474,49.543619],[-114.60155,49.55054],[-114.680899,49.55555],[-114.716714,49.568503],[-114.734023,49.587201],[-114.73733,49.603846],[-114.686041,49.643067],[-114.642842,49.730298],[-114.637596,49.796755],[-114.684931,49.93427],[-114.677878,49.954727],[-114.651395,49.985324],[-114.651961,50.019612],[-114.667748,50.060976],[-114.716379,50.129344],[-114.789136,50.359145],[-114.992795,50.545033],[-115.047881,50.577048],[-115.091189,50.584815],[-115.127669,50.584947],[-115.188698,50.557173],[-115.205958,50.553658],[-115.222086,50.562623],[-115.26663,50.59423],[-115.305439,50.634561],[-115.310965,50.642131],[-115.307631,50.65582],[-115.298358,50.673497],[-115.31102,50.696854],[-115.334998,50.719595],[-115.346522,50.728945],[-115.359777,50.728637],[-115.37551,50.727011],[-115.386205,50.726462],[-115.398713,50.731373],[-115.433105,50.756388],[-115.633892,50.855243],[-115.639885,50.869174],[-115.588002,50.909197],[-115.596192,50.936268],[-115.618934,50.962316],[-115.793781,51.070422],[-115.940438,51.102051],[-115.997643,51.129539],[-116.013535,51.150699],[-116.035002,51.217649],[-116.04188,51.229998],[-116.054382,51.236919],[-116.134923,51.26622],[-116.176342,51.297004],[-116.250313,51.322657],[-116.278762,51.347826],[-116.309952,51.447769],[-116.3771,51.497273],[-116.410795,51.543724],[-116.457718,51.57365],[-116.501746,51.614783],[-116.56735,51.650698],[-116.633856,51.758473],[-116.674033,51.790685],[-116.717704,51.799936],[-116.758189,51.788543],[-116.790774,51.770954],[-116.808237,51.752607],[-116.814697,51.721856],[-116.829918,51.715242],[-116.912783,51.713847],[-116.938721,51.735754],[-117.03706,51.885904],[-117.076984,51.926388],[-117.24457,52.047106],[-117.320145,52.155959],[-117.347589,52.15909],[-117.384948,52.144412],[-117.587316,52.141731],[-117.750638,52.207715],[-117.787767,52.232523],[-117.821819,52.272161],[-117.734642,52.35257],[-117.731698,52.383156],[-117.757615,52.394637],[-117.883057,52.430156],[-118.001989,52.485889],[-118.028604,52.465894],[-118.044287,52.42742],[-118.060101,52.41272],[-118.191256,52.384145],[-118.221024,52.3861],[-118.242804,52.408864],[-118.246677,52.440757],[-118.225028,52.482692],[-118.266315,52.518288],[-118.288436,52.562266],[-118.350261,52.62346],[-118.319335,52.674459],[-118.330211,52.708824],[-118.357935,52.741926],[-118.412894,52.784223],[-118.428424,52.83554],[-118.476923,52.878508],[-118.501856,52.888373],[-118.605496,52.895119],[-118.630709,52.909434],[-118.668178,52.971672],[-118.678357,53.025911],[-118.731481,53.057848],[-118.766363,53.065418],[-118.77357,53.121569],[-118.803673,53.153397],[-118.914365,53.21169],[-118.99255,53.235585],[-119.016115,53.204373],[-119.022108,53.139444],[-119.045542,53.143784],[-119.261061,53.209493],[-119.308786,53.241891],[-119.399763,53.352502],[-119.434903,53.361598],[-119.592387,53.372453],[-119.64773,53.363049],[-119.680107,53.37064],[-119.723256,53.399787],[-119.819606,53.490995],[-119.855081,53.508618],[-119.89384,53.51555],[-119.896115,53.566702],[-119.920812,53.602287],[-119.91823,53.61223],[-119.886969,53.614713],[-119.743125,53.61502],[-119.73483,53.633653],[-119.811569,53.698791],[-119.884639,53.707932],[-119.904431,53.723005],[-119.91717,53.769894],[-119.972695,53.797053],[-120.001018,53.843788],[-120.000963,54.228629],[-120.000886,54.613458],[-120.000809,54.998298],[-120.000759,55.383127],[-120.000704,55.767967],[-120.000628,56.152796],[-120.000551,56.537636],[-120.000501,56.922443],[-120.000446,57.30725],[-120.000369,57.692091],[-120.000293,58.07692],[-120.000243,58.46176],[-120.000188,58.846589],[-120.000139,59.231429],[-120.000084,59.616258],[-120,60.001087],[-119.375006,60.001087],[-118.750032,60.001087],[-118.125031,60.001087],[-117.500029,60.001087],[-116.875034,60.001087],[-116.250032,60.001087],[-115.625031,60.001087],[-115.00003,60.001087],[-114.375029,60.001087],[-113.750027,60.001087],[-113.125026,60.001087],[-112.500025,60.001087],[-111.875024,60.001087],[-111.250028,60.001087],[-110.625027,60.001087],[-110.000025,60.001087],[-110,59.657138],[-109.99997,59.313145],[-109.99997,58.969163],[-109.999949,58.625203],[-109.999921,58.281254],[-109.999921,57.93724],[-109.999894,57.59328],[-109.999872,57.24932],[-109.999844,56.90536],[-109.999817,56.561378],[-109.999817,56.217396],[-109.999789,55.873436],[-109.999767,55.529476],[-109.999767,55.185472],[-109.99974,54.841512],[-109.999712,54.497552],[-109.99969,54.153592],[-109.999663,53.80961],[-109.999663,53.465628],[-109.999635,53.121668],[-109.999613,52.777708],[-109.999613,52.433726],[-109.999586,52.089744],[-109.999558,51.745784],[-109.999531,51.401824],[-109.999509,51.057842],[-109.999509,50.71386],[-109.999482,50.3699],[-109.999454,50.02594],[-109.999454,49.681958],[-109.999432,49.337966],[-109.999432,48.993083]]]}},{"type":"Feature","properties":{"name":"Arizona","iso_a2":"US","iso_n3":"840"},"geometry":{"type":"Polygon","coordinates":[[[-109.047807,31.327879],[-109.274774,31.327473],[-109.628215,31.326825],[-109.981651,31.326155],[-110.335092,31.325528],[-110.688533,31.324858],[-111.041974,31.32421],[-111.51621,31.47224],[-111.990473,31.620237],[-112.464731,31.768244],[-112.938967,31.916274],[-113.413203,32.064293],[-113.887461,32.212301],[-114.361724,32.360298],[-114.835955,32.508327],[-114.787999,32.564808],[-114.724773,32.715343],[-114.72095,32.724483],[-114.7209,32.724483],[-114.582176,32.734723],[-114.516467,32.772757],[-114.477531,32.842004],[-114.469,32.912306],[-114.490863,32.983618],[-114.550546,33.036792],[-114.648088,33.07175],[-114.704388,33.169781],[-114.719428,33.330863],[-114.701702,33.417809],[-114.651159,33.430619],[-114.60261,33.469895],[-114.556001,33.535626],[-114.521559,33.607608],[-114.499257,33.685875],[-114.495098,33.784653],[-114.509051,33.903921],[-114.418282,34.051149],[-114.32932,34.142027],[-114.163514,34.253363],[-114.125612,34.286509],[-114.125018,34.314084],[-114.125068,34.317182],[-114.15879,34.355217],[-114.308028,34.43289],[-114.371024,34.488492],[-114.376913,34.5397],[-114.378879,34.540633],[-114.398001,34.589698],[-114.557473,34.794571],[-114.610933,34.907401],[-114.610543,34.991117],[-114.610521,34.99761],[-114.590987,35.352776],[-114.648528,35.475922],[-114.662063,35.545355],[-114.645166,35.630543],[-114.650126,35.683508],[-114.677076,35.729805],[-114.68369,35.813597],[-114.687101,35.917341],[-114.732321,35.983666],[-114.741362,36.013516],[-114.715759,36.084982],[-114.669144,36.12172],[-114.592975,36.14756],[-114.505277,36.156426],[-114.406087,36.148307],[-114.331545,36.116293],[-114.281573,36.060328],[-114.232146,36.031698],[-114.183207,36.030303],[-114.119437,36.076665],[-114.061924,36.175212],[-114.042879,36.181771],[-114.041171,36.61249],[-114.04027,37.004153],[-113.72817,37.003944],[-113.41607,37.003735],[-113.103971,37.003527],[-112.791871,37.003318],[-112.479772,37.00312],[-112.167672,37.002911],[-111.855572,37.002703],[-111.543473,37.002494],[-111.231373,37.002285],[-110.919268,37.002087],[-110.607168,37.001879],[-110.295069,37.00167],[-109.982969,37.001461],[-109.67087,37.001252],[-109.35877,37.001055],[-109.04667,37.000846],[-109.046698,36.646339],[-109.046747,36.291843],[-109.046802,35.937336],[-109.046852,35.582819],[-109.046906,35.22829],[-109.046956,34.873794],[-109.047005,34.519287],[-109.04706,34.164791],[-109.04711,33.810284],[-109.047165,33.455788],[-109.047214,33.101293],[-109.047264,32.746764],[-109.047318,32.392235],[-109.047368,32.037739],[-109.047423,31.683232],[-109.047807,31.327879]]]}},{"type":"Feature","properties":{"name":"California","iso_a2":"US","iso_n3":"840"},"geometry":{"type":"MultiPolygon","coordinates":[[[[-114.610543,34.991117],[-114.610933,34.907401],[-114.557473,34.794571],[-114.398001,34.589698],[-114.378879,34.540633],[-114.376913,34.5397],[-114.371024,34.488492],[-114.308028,34.43289],[-114.15879,34.355217],[-114.125068,34.317182],[-114.125018,34.314084],[-114.125612,34.286509],[-114.163514,34.253363],[-114.32932,34.142027],[-114.418282,34.051149],[-114.509051,33.903921],[-114.495098,33.784653],[-114.499257,33.685875],[-114.521559,33.607608],[-114.556001,33.535626],[-114.60261,33.469895],[-114.651159,33.430619],[-114.701702,33.417809],[-114.719428,33.330863],[-114.704388,33.169781],[-114.648088,33.07175],[-114.550546,33.036792],[-114.490863,32.983618],[-114.469,32.912306],[-114.477531,32.842004],[-114.516467,32.772757],[-114.582176,32.734723],[-114.7209,32.724483],[-114.72095,32.724483],[-114.724773,32.715343],[-114.839058,32.704719],[-115.125214,32.683307],[-115.411374,32.661883],[-115.697508,32.64046],[-115.983663,32.619048],[-116.269824,32.597624],[-116.555958,32.576201],[-116.842113,32.554789],[-117.128274,32.533365],[-117.130466,32.53977],[-117.137393,32.649172],[-117.183744,32.687877],[-117.243482,32.664026],[-117.27069,32.806266],[-117.255759,32.87337],[-117.262966,32.938871],[-117.318826,33.100051],[-117.467422,33.295487],[-117.788514,33.538472],[-117.952095,33.619606],[-118.080514,33.722152],[-118.161901,33.750705],[-118.264403,33.758616],[-118.294171,33.712308],[-118.410439,33.743938],[-118.392949,33.858295],[-118.506196,34.01741],[-118.598854,34.035032],[-118.832045,34.024463],[-119.143732,34.112024],[-119.235842,34.164121],[-119.267647,34.257439],[-119.413688,34.338573],[-119.606054,34.418004],[-119.713203,34.399657],[-119.853301,34.411962],[-120.052977,34.469266],[-120.169559,34.476451],[-120.396471,34.459554],[-120.481192,34.471639],[-120.559821,34.543885],[-120.644696,34.579986],[-120.626716,34.668943],[-120.63762,34.749352],[-120.624904,34.811985],[-120.663015,34.949292],[-120.63361,35.076459],[-120.659088,35.122403],[-120.707043,35.157648],[-120.857374,35.20969],[-120.88489,35.274949],[-120.860291,35.365443],[-120.899589,35.425121],[-121.02284,35.480777],[-121.137949,35.607131],[-121.283831,35.676323],[-121.343855,35.792229],[-121.433745,35.86386],[-121.465012,35.927394],[-121.664353,36.154042],[-121.877411,36.331064],[-121.910178,36.432919],[-121.918648,36.572346],[-121.835141,36.657457],[-121.790004,36.732285],[-121.794525,36.800961],[-121.807445,36.851234],[-121.880669,36.938938],[-122.164215,36.990969],[-122.3949,37.207521],[-122.408468,37.373173],[-122.499237,37.542615],[-122.500451,37.652764],[-122.514223,37.771987],[-122.445624,37.798003],[-122.384101,37.788544],[-122.390275,37.741083],[-122.369708,37.655862],[-122.297594,37.591866],[-122.228661,37.563906],[-122.166,37.501669],[-122.11905,37.482827],[-122.070529,37.478279],[-122.096544,37.518203],[-122.124142,37.543812],[-122.15804,37.62644],[-122.222201,37.732041],[-122.29599,37.790356],[-122.333432,37.896605],[-122.365473,37.921204],[-122.385446,37.960579],[-122.314233,38.007347],[-122.217031,38.040647],[-122.086728,38.049612],[-121.716857,38.034066],[-121.638101,38.061268],[-121.573013,38.052402],[-121.525343,38.055918],[-121.625725,38.083933],[-121.682206,38.074781],[-121.748635,38.080461],[-121.880773,38.075012],[-121.934155,38.086823],[-121.993119,38.120133],[-122.031511,38.123517],[-122.153778,38.065531],[-122.208297,38.072529],[-122.337129,38.135887],[-122.393351,38.144808],[-122.483889,38.108839],[-122.494892,37.95358],[-122.46691,37.838213],[-122.521325,37.826403],[-122.584189,37.874072],[-122.680698,37.90234],[-122.760382,37.945648],[-122.872932,38.026046],[-122.932,38.055457],[-122.998791,37.988616],[-123.001455,38.019279],[-122.96815,38.097007],[-122.977604,38.227327],[-122.87681,38.123363],[-122.908154,38.196587],[-122.986547,38.277095],[-123.046181,38.305055],[-123.121162,38.449283],[-123.289731,38.535867],[-123.424786,38.675624],[-123.701125,38.907293],[-123.719522,39.110968],[-123.820294,39.3684],[-123.777788,39.514957],[-123.783501,39.618723],[-123.832928,39.775509],[-123.884476,39.860796],[-124.108515,40.09453],[-124.324034,40.251964],[-124.356537,40.371078],[-124.371654,40.491202],[-124.324522,40.598088],[-124.283675,40.710534],[-124.253908,40.740307],[-124.242334,40.727903],[-124.250601,40.70392],[-124.220009,40.696482],[-124.208435,40.746096],[-124.190242,40.771727],[-124.222487,40.775034],[-124.21918,40.790745],[-124.199904,40.822056],[-124.133091,40.969778],[-124.140013,41.155886],[-124.068519,41.384171],[-124.071903,41.459516],[-124.117688,41.621751],[-124.163243,41.719002],[-124.244608,41.787941],[-124.208743,41.888554],[-124.211665,41.984618],[-124.228409,42.000768],[-123.955656,42.000559],[-123.692007,42.000559],[-123.428351,42.000559],[-123.164701,42.000559],[-122.901046,42.000559],[-122.63739,42.000559],[-122.37374,42.000559],[-122.110063,42.000559],[-121.84638,42.000559],[-121.58273,42.000559],[-121.319075,42.000559],[-121.05542,42.000559],[-120.79177,42.000559],[-120.528114,42.000559],[-120.264464,42.000559],[-120.000809,42.000559],[-120.000759,41.813056],[-120.000704,41.625519],[-120.000655,41.438015],[-120.000628,41.250501],[-120.0006,41.062975],[-120.000551,40.87546],[-120.000501,40.687957],[-120.000446,40.50042],[-120.000397,40.312883],[-120.000342,40.12538],[-120.000293,39.937876],[-120.000243,39.750339],[-120.000188,39.562803],[-120.000139,39.375299],[-120.000084,39.187784],[-120.000062,39.000259],[-119.765839,38.836782],[-119.531616,38.673295],[-119.297387,38.509796],[-119.063164,38.34632],[-118.828941,38.182843],[-118.594718,38.019333],[-118.360495,37.855857],[-118.126272,37.69238],[-117.942949,37.554579],[-117.759603,37.416788],[-117.576253,37.278965],[-117.392935,37.141174],[-117.209611,37.003373],[-117.02626,36.865549],[-116.842915,36.727759],[-116.659592,36.589968],[-116.405681,36.391786],[-116.151743,36.193625],[-115.897827,35.995476],[-115.643917,35.797294],[-115.390006,35.599122],[-115.136096,35.400962],[-114.88218,35.202812],[-114.610543,34.991117]]],[[[-119.882393,34.07968],[-119.678865,34.028462],[-119.569129,34.052961],[-119.549287,34.028154],[-119.562207,34.00661],[-119.809581,33.967795],[-119.885518,33.994931],[-119.892418,34.032164],[-119.918049,34.067848],[-119.882393,34.07968]]],[[[-120.306602,34.024869],[-120.359705,34.022265],[-120.441558,34.032933],[-120.412928,34.056323],[-120.367736,34.073297],[-120.353322,34.060586],[-120.306602,34.024869]]],[[[-120.043573,33.918862],[-120.113902,33.904855],[-120.167131,33.918082],[-120.251907,34.013839],[-120.071841,34.026506],[-119.994404,33.984934],[-119.983939,33.973332],[-120.043573,33.918862]]],[[[-118.347965,33.385762],[-118.297478,33.312131],[-118.370234,33.321217],[-118.446304,33.317086],[-118.469353,33.357142],[-118.49204,33.412821],[-118.507333,33.427004],[-118.559425,33.43197],[-118.563325,33.437079],[-118.569422,33.464182],[-118.554849,33.47708],[-118.391707,33.415095],[-118.347965,33.385762]]],[[[-119.438029,33.217198],[-119.482496,33.215342],[-119.543679,33.224614],[-119.575177,33.278326],[-119.525128,33.282051],[-119.478799,33.274635],[-119.442055,33.232447],[-119.438029,33.217198]]],[[[-118.350393,32.827612],[-118.408582,32.818515],[-118.473204,32.838928],[-118.52891,32.935608],[-118.59017,33.011161],[-118.557101,33.032661],[-118.507492,32.959898],[-118.383182,32.849464],[-118.350393,32.827612]]]]}},{"type":"Feature","properties":{"name":"Hawaii","iso_a2":"US","iso_n3":"840"},"geometry":{"type":"MultiPolygon","coordinates":[[[[-177.371467,28.2005],[-177.390485,28.196369],[-177.388831,28.208773],[-177.370641,28.221176],[-177.354104,28.217035],[-177.361546,28.207114],[-177.371467,28.2005]]],[[[-159.372773,21.93236],[-159.460674,21.876132],[-159.51186,21.900368],[-159.608858,21.90952],[-159.646373,21.95174],[-159.748022,21.989819],[-159.789182,22.041806],[-159.726626,22.1402],[-159.579222,22.223135],[-159.352052,22.219576],[-159.304792,22.154053],[-159.300658,22.105263],[-159.33019,22.050694],[-159.34373,21.973647],[-159.372773,21.93236]]],[[[-160.18001,21.841075],[-160.200241,21.796888],[-160.234711,21.803677],[-160.243445,21.843063],[-160.220912,21.89727],[-160.16386,21.944039],[-160.100636,22.015241],[-160.048728,22.00465],[-160.076711,21.95809],[-160.080042,21.907443],[-160.153395,21.878769],[-160.18001,21.841075]]],[[[-157.799355,21.456652],[-157.764989,21.450939],[-157.720885,21.457707],[-157.705537,21.378078],[-157.65417,21.333913],[-157.635411,21.307645],[-157.690887,21.279739],[-157.798786,21.268621],[-157.849326,21.290847],[-157.901753,21.34056],[-157.958442,21.326915],[-157.968311,21.366916],[-157.97844,21.378484],[-158.017274,21.36774],[-157.98097,21.316115],[-158.079157,21.312237],[-158.110345,21.318598],[-158.137835,21.377144],[-158.239093,21.489337],[-158.238681,21.533051],[-158.273124,21.585247],[-158.123108,21.600255],[-158.02035,21.691804],[-157.962496,21.701362],[-157.851496,21.553365],[-157.854338,21.511913],[-157.829584,21.471451],[-157.799355,21.456652]]],[[[-157.213602,21.215392],[-157.002296,21.18796],[-156.952353,21.199693],[-156.917213,21.177314],[-156.742209,21.163515],[-156.712161,21.155088],[-156.747894,21.103574],[-156.85985,21.056332],[-157.020874,21.097784],[-157.290314,21.112582],[-157.27949,21.152353],[-157.253807,21.180566],[-157.249931,21.229763],[-157.213602,21.215392]]],[[[-156.486826,20.932571],[-156.460833,20.914741],[-156.354405,20.941459],[-156.277537,20.951281],[-156.148346,20.885495],[-156.103516,20.84033],[-156.018636,20.792067],[-155.989854,20.757131],[-156.013574,20.714811],[-156.107133,20.644784],[-156.234748,20.628613],[-156.309963,20.598796],[-156.408793,20.605179],[-156.438223,20.617868],[-156.448868,20.706231],[-156.480056,20.801241],[-156.543823,20.790002],[-156.615449,20.821829],[-156.689681,20.901414],[-156.697769,20.949062],[-156.656867,21.024505],[-156.585423,21.034327],[-156.532301,20.992678],[-156.486826,20.932571]]],[[[-156.849595,20.772632],[-156.908866,20.744474],[-156.973411,20.757548],[-156.988448,20.825707],[-157.050565,20.912466],[-156.941784,20.930045],[-156.880549,20.90482],[-156.848276,20.877794],[-156.80939,20.831135],[-156.849595,20.772632]]],[[[-155.581325,19.012018],[-155.625611,18.963909],[-155.680751,18.967677],[-155.881306,19.070521],[-155.905594,19.125815],[-155.890738,19.382543],[-155.965824,19.590789],[-156.048686,19.749959],[-155.988407,19.831609],[-155.908877,19.894704],[-155.820302,20.01418],[-155.892754,20.167396],[-155.874278,20.259802],[-155.831621,20.27582],[-155.622073,20.163419],[-155.198789,19.994383],[-155.086083,19.875632],[-155.065929,19.748201],[-154.989035,19.731974],[-154.952577,19.644644],[-154.841343,19.568157],[-154.804188,19.524443],[-154.850283,19.454108],[-155.053476,19.319185],[-155.309611,19.260167],[-155.535229,19.109072],[-155.581325,19.012018]]]]}},{"type":"Feature","properties":{"name":"Massachusetts","iso_a2":"US","iso_n3":"840"},"geometry":{"type":"MultiPolygon","coordinates":[[[[-71.800836,42.011963],[-71.801638,42.022708],[-71.921136,42.024125],[-72.040634,42.025553],[-72.160133,42.02697],[-72.279642,42.028388],[-72.39914,42.029816],[-72.518638,42.031233],[-72.638115,42.03265],[-72.757624,42.034079],[-72.763326,42.011238],[-72.806458,42.00803],[-72.8077,42.034079],[-72.8918,42.036759],[-72.975922,42.039451],[-73.060034,42.042132],[-73.144134,42.044823],[-73.228234,42.047515],[-73.312346,42.050195],[-73.396468,42.052887],[-73.480568,42.055568],[-73.507287,42.080012],[-73.475537,42.164047],[-73.443808,42.24807],[-73.412047,42.332094],[-73.380296,42.416117],[-73.348568,42.500141],[-73.316806,42.584175],[-73.285056,42.668198],[-73.253327,42.752222],[-73.155011,42.749486],[-73.056694,42.74674],[-72.95841,42.744004],[-72.860094,42.741268],[-72.761777,42.738533],[-72.663493,42.735786],[-72.565177,42.733051],[-72.46686,42.730315],[-72.324697,42.726854],[-72.182545,42.723361],[-72.040382,42.719878],[-71.898241,42.716406],[-71.75611,42.712924],[-71.613947,42.70943],[-71.471784,42.705969],[-71.329621,42.702487],[-71.242335,42.729535],[-71.139294,42.808131],[-71.076177,42.825083],[-70.974082,42.871676],[-70.923489,42.881564],[-70.806112,42.876763],[-70.829051,42.825347],[-70.800278,42.77403],[-70.781337,42.72124],[-70.735678,42.669286],[-70.696864,42.664584],[-70.65483,42.673955],[-70.62398,42.671758],[-70.604139,42.649719],[-70.61295,42.623264],[-70.661444,42.616651],[-70.75185,42.570343],[-70.831171,42.552567],[-70.870887,42.496636],[-70.930444,42.431981],[-71.046174,42.331116],[-70.996724,42.299981],[-70.817944,42.264967],[-70.73826,42.228866],[-70.617696,42.040429],[-70.645239,42.021565],[-70.656148,41.987046],[-70.548922,41.938629],[-70.514677,41.803311],[-70.426677,41.7573],[-70.295467,41.728955],[-70.135012,41.769857],[-70.001407,41.826184],[-70.006109,41.872327],[-70.090034,41.979707],[-70.110238,42.030145],[-70.172585,42.062808],[-70.196228,42.035111],[-70.236536,42.071026],[-70.241085,42.091229],[-70.203489,42.101018],[-70.159852,42.097118],[-70.108941,42.078309],[-69.977896,41.961261],[-69.941586,41.807859],[-69.933841,41.710421],[-69.94864,41.677144],[-69.986751,41.683966],[-70.059514,41.677352],[-70.40466,41.626892],[-70.481356,41.582453],[-70.657126,41.534234],[-70.668057,41.558294],[-70.655346,41.608106],[-70.666453,41.710114],[-70.701126,41.714849],[-70.974246,41.548527],[-71.079792,41.53809],[-71.16854,41.489409],[-71.188414,41.516403],[-71.204278,41.641131],[-71.148731,41.74572],[-71.178339,41.744072],[-71.233765,41.706554],[-71.267889,41.75084],[-71.304737,41.774658],[-71.340728,41.797916],[-71.339487,41.835171],[-71.33763,41.891443],[-71.379071,41.902407],[-71.383927,41.971731],[-71.387135,42.016863],[-71.462534,42.015962],[-71.524134,42.015237],[-71.623242,42.014028],[-71.725821,42.012864],[-71.800836,42.011963]]],[[[-70.509898,41.376338],[-70.785314,41.327449],[-70.829183,41.359002],[-70.760485,41.373602],[-70.673715,41.448529],[-70.615993,41.457208],[-70.525356,41.41479],[-70.509898,41.376338]]],[[[-69.97794,41.265596],[-70.055097,41.249468],[-70.233076,41.286338],[-70.086617,41.317561],[-70.0627,41.328482],[-70.043605,41.374426],[-70.041199,41.397476],[-69.985598,41.298621],[-69.97794,41.265596]]]]}},{"type":"Feature","properties":{"name":"Texas","iso_a2":"US","iso_n3":"840"},"geometry":{"type":"MultiPolygon","coordinates":[[[[-94.484149,33.648434],[-94.432008,33.599731],[-94.390122,33.585603],[-94.377955,33.566113],[-94.357674,33.560972],[-94.33256,33.565036],[-94.294679,33.58746],[-94.238456,33.581208],[-94.191534,33.589009],[-94.098798,33.57733],[-94.047327,33.554435],[-94.045805,33.418841],[-94.044306,33.283215],[-94.042806,33.147589],[-94.041307,33.011996],[-94.041565,32.885378],[-94.041801,32.758805],[-94.042032,32.63222],[-94.04229,32.505614],[-94.042548,32.379007],[-94.042806,32.252423],[-94.043064,32.125838],[-94.043301,31.999232],[-93.905065,31.876998],[-93.845585,31.792942],[-93.826798,31.75026],[-93.820652,31.603966],[-93.806902,31.568799],[-93.737578,31.513812],[-93.736057,31.477667],[-93.663657,31.372198],[-93.665882,31.322584],[-93.596992,31.209754],[-93.557749,31.180421],[-93.551443,31.104066],[-93.530591,31.04619],[-93.562654,31.004903],[-93.549196,30.947719],[-93.568675,30.894655],[-93.579194,30.823805],[-93.624721,30.714348],[-93.665206,30.660768],[-93.720215,30.558265],[-93.715205,30.473253],[-93.746626,30.380363],[-93.750394,30.344713],[-93.720967,30.282904],[-93.710629,30.112813],[-93.726933,30.077108],[-93.79401,29.977264],[-93.841449,29.979747],[-93.946302,29.815007],[-93.886383,29.722634],[-93.890464,29.689356],[-94.099677,29.670383],[-94.574457,29.484527],[-94.759609,29.384255],[-94.750128,29.418027],[-94.526265,29.547962],[-94.605334,29.567804],[-94.732638,29.53535],[-94.778291,29.547863],[-94.724365,29.655299],[-94.741938,29.74999],[-94.832322,29.752605],[-94.889913,29.676953],[-94.929859,29.68015],[-94.982286,29.712603],[-95.022875,29.70232],[-94.992827,29.530934],[-94.935907,29.460478],[-94.888287,29.370555],[-95.018332,29.25945],[-95.139044,29.167835],[-95.152145,29.079231],[-95.273506,28.963863],[-95.387637,28.89844],[-95.655863,28.744598],[-95.732394,28.711705],[-95.853419,28.640349],[-96.020411,28.586834],[-96.180531,28.501877],[-96.234535,28.48899],[-96.132291,28.560896],[-96.011034,28.631944],[-96.115031,28.622232],[-96.27536,28.655125],[-96.37344,28.657037],[-96.374111,28.631098],[-96.448735,28.594481],[-96.526041,28.648303],[-96.559708,28.684448],[-96.575704,28.715715],[-96.608515,28.723307],[-96.64004,28.708761],[-96.524645,28.488704],[-96.475476,28.47919],[-96.42111,28.457339],[-96.488808,28.406065],[-96.561697,28.367163],[-96.676339,28.34129],[-96.773546,28.421622],[-96.794579,28.320855],[-96.806901,28.220188],[-96.839508,28.194403],[-96.8916,28.157555],[-96.919867,28.185339],[-96.933276,28.224275],[-96.966636,28.189547],[-97.01547,28.163454],[-97.096033,28.158258],[-97.156491,28.14436],[-97.155074,28.102656],[-97.141275,28.060765],[-97.034329,28.093845],[-97.073088,27.986091],[-97.171454,27.879567],[-97.251578,27.85442],[-97.37413,27.870031],[-97.404386,27.859309],[-97.431517,27.837215],[-97.288733,27.670608],[-97.380458,27.419361],[-97.439109,27.328285],[-97.47978,27.316573],[-97.523863,27.313969],[-97.682148,27.394917],[-97.768446,27.457495],[-97.692377,27.287141],[-97.485103,27.237406],[-97.474512,27.172938],[-97.475671,27.117885],[-97.516524,27.053209],[-97.554712,26.967351],[-97.526494,26.907508],[-97.49381,26.75961],[-97.465828,26.691759],[-97.435082,26.485853],[-97.402316,26.396534],[-97.213933,26.067867],[-97.150372,26.065307],[-97.140187,26.029733],[-97.146235,25.961464],[-97.281785,25.941623],[-97.33865,25.91118],[-97.349735,25.88478],[-97.358162,25.87052],[-97.375624,25.871805],[-97.440273,25.890822],[-97.587243,25.984206],[-97.801416,26.042049],[-98.082792,26.064428],[-98.275031,26.111197],[-98.378121,26.182356],[-98.48587,26.224576],[-98.598293,26.237858],[-98.691413,26.276453],[-98.76523,26.340405],[-98.873209,26.38123],[-99.015268,26.398962],[-99.107767,26.446917],[-99.172081,26.564141],[-99.172367,26.565921],[-99.22993,26.761928],[-99.302462,26.884711],[-99.443537,27.036674],[-99.456506,27.056615],[-99.456534,27.05667],[-99.45772,27.081707],[-99.440258,27.170125],[-99.455139,27.233714],[-99.499814,27.285515],[-99.51007,27.340326],[-99.485834,27.398048],[-99.484258,27.467393],[-99.505319,27.548341],[-99.595313,27.63588],[-99.754269,27.729934],[-99.889631,27.867296],[-100.001412,28.047845],[-100.111945,28.172957],[-100.221265,28.242622],[-100.296043,28.327678],[-100.336275,28.428137],[-100.348157,28.48643],[-100.331727,28.502547],[-100.398903,28.614223],[-100.549695,28.821338],[-100.636306,28.972806],[-100.65863,29.068541],[-100.754596,29.182513],[-100.924142,29.314701],[-101.016334,29.400658],[-101.038631,29.460291],[-101.038972,29.460401],[-101.303528,29.634084],[-101.380344,29.742552],[-101.44039,29.776841],[-101.509302,29.773116],[-101.544623,29.783531],[-101.546381,29.808075],[-101.568705,29.809239],[-101.611596,29.78697],[-101.752336,29.782476],[-101.990899,29.795704],[-102.163087,29.825257],[-102.268919,29.871169],[-102.343076,29.864973],[-102.385659,29.806657],[-102.476247,29.769084],[-102.614944,29.752341],[-102.73419,29.64395],[-102.834,29.443966],[-102.877825,29.315316],[-102.865679,29.258033],[-102.892008,29.216384],[-102.956811,29.190368],[-103.022828,29.132207],[-103.090009,29.041866],[-103.168298,28.998173],[-103.257699,29.001129],[-103.422933,29.070683],[-103.663979,29.206903],[-103.852905,29.29108],[-103.989746,29.323171],[-104.110617,29.386112],[-104.21552,29.479902],[-104.312205,29.542436],[-104.400623,29.573747],[-104.503977,29.677667],[-104.622212,29.854272],[-104.68133,29.990525],[-104.68133,30.134358],[-104.835896,30.447655],[-104.917854,30.583358],[-104.978834,30.645936],[-105.098151,30.720555],[-105.275816,30.80727],[-105.513994,30.980766],[-105.812707,31.241043],[-106.02409,31.397774],[-106.148065,31.450926],[-106.255703,31.544662],[-106.346967,31.678991],[-106.436027,31.764465],[-106.445382,31.768398],[-106.566358,31.819529],[-106.566281,31.819529],[-106.668262,32.000946],[-106.662219,32.001297],[-106.43745,32.001407],[-106.212659,32.001484],[-105.987868,32.001561],[-105.763076,32.00166],[-105.53828,32.00177],[-105.313488,32.001847],[-105.088697,32.001924],[-104.863928,32.002022],[-104.639164,32.002132],[-104.414373,32.002209],[-104.189576,32.002286],[-103.964785,32.002385],[-103.739993,32.002495],[-103.515202,32.002572],[-103.290405,32.002649],[-103.065642,32.002748],[-103.064169,32.283866],[-103.062719,32.564984],[-103.061247,32.846113],[-103.059775,33.127231],[-103.058303,33.408349],[-103.056831,33.689468],[-103.055358,33.970586],[-103.053886,34.251682],[-103.052414,34.532778],[-103.050942,34.813896],[-103.049492,35.095015],[-103.04802,35.376133],[-103.046547,35.657251],[-103.045103,35.93838],[-103.043625,36.219498],[-103.042153,36.500616],[-103.000295,36.501232],[-102.812918,36.50121],[-102.625562,36.501188],[-102.438212,36.501188],[-102.250835,36.501155],[-102.063452,36.501133],[-101.876102,36.501133],[-101.688747,36.501111],[-101.50137,36.501078],[-101.313992,36.501056],[-101.126637,36.501023],[-100.939287,36.500979],[-100.751904,36.500979],[-100.564527,36.500946],[-100.377177,36.500924],[-100.189822,36.500924],[-100.002444,36.500902],[-100.002236,36.381239],[-100.002054,36.261609],[-100.001873,36.141979],[-100.00167,36.022349],[-100.001461,35.902718],[-100.00128,35.783088],[-100.001099,35.663458],[-100.000895,35.543828],[-100.000687,35.424198],[-100.000505,35.304568],[-100.000324,35.184938],[-100.000115,35.065275],[-99.999912,34.945622],[-99.999731,34.825992],[-99.99955,34.706362],[-99.999341,34.586721],[-99.94069,34.576339],[-99.867027,34.543369],[-99.685615,34.415829],[-99.632029,34.388495],[-99.536168,34.404744],[-99.432298,34.38922],[-99.404986,34.392065],[-99.38465,34.446788],[-99.374938,34.457873],[-99.360387,34.456094],[-99.270316,34.407226],[-99.252875,34.388077],[-99.19991,34.318314],[-99.186578,34.235477],[-99.157508,34.223282],[-99.102291,34.213472],[-98.96884,34.208605],[-98.798953,34.154739],[-98.730118,34.146576],[-98.608395,34.161275],[-98.493851,34.088777],[-98.453674,34.078131],[-98.420419,34.088052],[-98.355978,34.141511],[-98.214079,34.135337],[-98.098635,34.145027],[-98.089587,34.084097],[-98.069383,34.040305],[-97.973962,33.993734],[-97.951072,33.971212],[-97.946238,33.897076],[-97.92159,33.878367],[-97.882858,33.871116],[-97.842422,33.875785],[-97.795291,33.899065],[-97.691937,33.972135],[-97.660362,33.990043],[-97.640933,33.991669],[-97.621789,33.987768],[-97.605925,33.971651],[-97.571247,33.91594],[-97.481565,33.885705],[-97.430171,33.838508],[-97.398492,33.831323],[-97.363611,33.840178],[-97.308163,33.869226],[-97.264679,33.867776],[-97.214938,33.897109],[-97.194762,33.890616],[-97.186182,33.870083],[-97.201013,33.808164],[-97.192488,33.784631],[-97.172383,33.75688],[-97.145071,33.737687],[-97.119,33.734764],[-97.09895,33.750442],[-97.061229,33.8285],[-97.063838,33.8568],[-97.02159,33.866512],[-97.002161,33.881597],[-96.977694,33.938033],[-96.934051,33.95348],[-96.911001,33.950437],[-96.889996,33.934617],[-96.847572,33.883179],[-96.746283,33.854186],[-96.720213,33.85279],[-96.694016,33.863799],[-96.648538,33.906382],[-96.625132,33.911446],[-96.606345,33.905635],[-96.595364,33.899405],[-96.59159,33.849275],[-96.487204,33.7923],[-96.41114,33.775205],[-96.336752,33.717713],[-96.315048,33.711122],[-96.278562,33.757627],[-96.207272,33.774062],[-96.139344,33.821963],[-95.941579,33.882838],[-95.863082,33.863304],[-95.783914,33.864502],[-95.763166,33.891473],[-95.622789,33.930255],[-95.594471,33.945163],[-95.555712,33.926091],[-95.541836,33.898164],[-95.523494,33.886562],[-95.427117,33.872785],[-95.373888,33.874269],[-95.276016,33.910622],[-95.238031,33.956479],[-95.21586,33.959039],[-95.146075,33.936616],[-94.962389,33.843408],[-94.869374,33.768196],[-94.765734,33.731611],[-94.709198,33.699289],[-94.484149,33.648434]]],[[[-95.039695,29.145918],[-95.089666,29.136305],[-94.87167,29.290146],[-94.825989,29.341309],[-94.767618,29.339035],[-94.864952,29.252892],[-95.039695,29.145918]]],[[[-96.7644,28.152567],[-96.801116,28.148414],[-96.755611,28.202434],[-96.68164,28.229702],[-96.519322,28.333468],[-96.453124,28.340598],[-96.418633,28.376325],[-96.403565,28.381577],[-96.413332,28.337807],[-96.543893,28.275592],[-96.7644,28.152567]]],[[[-97.014355,27.901628],[-97.036009,27.899178],[-96.987642,27.981026],[-96.978672,28.013842],[-96.899301,28.117454],[-96.857416,28.132912],[-96.839766,28.088802],[-96.92134,28.01604],[-97.014355,27.901628]]],[[[-97.353613,27.300061],[-97.384825,27.242525],[-97.376223,27.328252],[-97.29504,27.523072],[-97.130008,27.77913],[-97.060558,27.822021],[-97.250907,27.541189],[-97.353613,27.300061]]],[[[-97.170702,26.159383],[-97.184501,26.112933],[-97.267316,26.329759],[-97.402085,26.820507],[-97.407177,27.100208],[-97.38599,27.196503],[-97.351235,26.801468],[-97.202227,26.299788],[-97.170702,26.159383]]]]}},{"type":"Feature","properties":{"name":"Beijing","iso_a2":"CN","iso_n3":"156"},"geometry":{"type":"Polygon","coordinates":[[[116.793419,39.602312],[116.604387,39.611174],[116.428274,39.521412],[116.386622,39.442141],[116.249783,39.505806],[116.210406,39.5719],[116.000599,39.557612],[115.945409,39.575388],[115.755911,39.508958],[115.618452,39.603733],[115.463423,39.643214],[115.437326,39.749305],[115.510914,39.838499],[115.496444,39.923636],[115.427094,39.962574],[115.577628,40.096313],[115.819835,40.151891],[115.945202,40.293717],[115.728161,40.539593],[115.874457,40.610235],[115.994708,40.595972],[116.130359,40.657984],[116.207305,40.750381],[116.291434,40.739891],[116.458866,40.791567],[116.438195,40.899726],[116.652653,41.03101],[116.675804,40.940137],[116.910415,40.749218],[117.058003,40.677207],[117.199183,40.690023],[117.303466,40.661808],[117.428523,40.669042],[117.411779,40.597367],[117.243108,40.57016],[117.184145,40.49727],[117.23794,40.450193],[117.250549,40.337822],[117.356796,40.257026],[117.37204,40.200647],[117.310597,40.110472],[117.239077,40.092618],[116.987671,40.034353],[116.829386,40.036678],[116.744223,39.959008],[116.78143,39.889659],[116.922197,39.773593],[116.875636,39.686467],[116.793419,39.602312]]]}},{"type":"Feature","properties":{"name":"Fujian","iso_a2":"CN","iso_n3":"156"},"geometry":{"type":"MultiPolygon","coordinates":[[[[120.423805,27.202522],[120.38457,27.155518],[120.278711,27.09707],[120.138574,26.886133],[120.097461,26.780664],[120.086719,26.671582],[120.042969,26.633838],[119.967773,26.586377],[119.882227,26.610449],[119.879492,26.683008],[119.842383,26.689307],[119.821289,26.736914],[119.815137,26.797607],[119.824219,26.846387],[119.788672,26.831494],[119.766699,26.774707],[119.710449,26.728662],[119.651563,26.747266],[119.588184,26.784961],[119.589941,26.730469],[119.623633,26.675879],[119.638184,26.621191],[119.725977,26.609424],[119.784766,26.546631],[119.831152,26.450195],[119.840332,26.41416],[119.876465,26.370947],[119.881055,26.33418],[119.797266,26.300146],[119.692676,26.236426],[119.56709,26.127344],[119.463086,26.054688],[119.369727,26.054053],[119.313086,26.062549],[119.232129,26.104395],[119.139453,26.121777],[119.26377,25.974805],[119.332031,25.94873],[119.417773,25.954346],[119.500879,26.00918],[119.61875,26.003564],[119.648242,25.918701],[119.616895,25.8229],[119.552832,25.698682],[119.539453,25.59126],[119.619141,25.437451],[119.622461,25.391162],[119.592773,25.368018],[119.499219,25.408643],[119.421777,25.459619],[119.34375,25.446289],[119.263086,25.468018],[119.180078,25.449805],[119.146289,25.414307],[119.169336,25.355713],[119.243555,25.307031],[119.285547,25.232227],[119.235547,25.205957],[119.024609,25.223438],[118.977539,25.209277],[118.914453,25.126807],[118.955664,25.004785],[118.909082,24.928906],[118.82207,24.911133],[118.70752,24.849805],[118.636914,24.835547],[118.640234,24.809082],[118.691797,24.782324],[118.719141,24.746143],[118.657031,24.621436],[118.560352,24.580371],[118.412012,24.600732],[118.295313,24.572754],[118.194531,24.62583],[118.087109,24.627002],[118.013867,24.559912],[118.005957,24.481982],[117.935059,24.474219],[117.896875,24.479834],[117.842676,24.474316],[117.848242,24.432471],[117.879004,24.395898],[118.024219,24.379639],[118.050586,24.327148],[118.056055,24.246094],[117.904102,24.106445],[117.839453,24.012305],[117.741699,24.014795],[117.667871,23.939258],[117.628223,23.836719],[117.579199,23.856982],[117.466406,23.840576],[117.433105,23.791699],[117.45957,23.771484],[117.462207,23.73623],[117.416992,23.620996],[117.367676,23.588623],[117.34668,23.635742],[117.330762,23.708789],[117.29082,23.714355],[117.225,23.647021],[117.175049,23.615667],[117.036505,23.738267],[116.924832,24.0776],[116.967672,24.185113],[116.882406,24.393989],[116.748564,24.551499],[116.745308,24.670923],[116.603767,24.655834],[116.529559,24.615371],[116.372101,24.841301],[116.114701,24.846055],[116.035688,24.893571],[115.887531,24.916774],[115.888462,24.999947],[115.842831,25.194742],[115.907995,25.238279],[115.97874,25.35083],[116.000186,25.497178],[116.044524,25.574589],[116.027574,25.636368],[116.123693,25.764242],[116.135165,25.866328],[116.180175,25.90723],[116.323215,25.955109],[116.397268,26.061459],[116.419282,26.152874],[116.398973,26.287543],[116.501654,26.407045],[116.594465,26.395082],[116.619476,26.492078],[116.542323,26.562798],[116.504961,26.689301],[116.545269,26.867869],[116.669706,26.986906],[116.923437,27.021012],[117.040123,27.109534],[117.153811,27.276397],[117.101101,27.346652],[117.124665,27.429928],[117.112263,27.56762],[117.225124,27.72345],[117.287136,27.77262],[117.284242,27.857034],[117.544433,27.966665],[117.605256,27.866155],[117.745557,27.81329],[117.823434,27.937261],[117.946475,27.973202],[118.0613,27.979016],[118.130702,28.040537],[118.367793,28.099706],[118.34888,28.219802],[118.446445,28.288687],[118.498897,28.262435],[118.735213,28.325972],[118.797018,28.212929],[118.76565,28.178177],[118.748132,27.973202],[118.819807,27.90995],[118.889467,27.722158],[118.922695,27.549998],[119.005274,27.480054],[119.185831,27.419929],[119.26562,27.424114],[119.390367,27.51261],[119.467313,27.525297],[119.511703,27.636711],[119.615831,27.665573],[119.686576,27.511293],[119.693397,27.41104],[119.770085,27.315878],[120.064434,27.343628],[120.147736,27.400214],[120.248919,27.410162],[120.344004,27.379647],[120.405809,27.296861],[120.423805,27.202522]]],[[[118.076758,24.501416],[118.092969,24.541211],[118.103809,24.552344],[118.170703,24.518506],[118.183008,24.496289],[118.149512,24.436133],[118.090527,24.446143],[118.08877,24.488867],[118.076758,24.501416]]],[[[119.797461,25.623242],[119.828711,25.607373],[119.838379,25.591064],[119.838672,25.559668],[119.809082,25.507812],[119.832422,25.47959],[119.820898,25.456982],[119.74668,25.410693],[119.700293,25.432715],[119.699414,25.494727],[119.723047,25.550586],[119.695996,25.590869],[119.722559,25.638818],[119.77793,25.653174],[119.797461,25.623242]]]]}},{"type":"Feature","properties":{"name":"Guangdong","iso_a2":"CN","iso_n3":"156"},"geometry":{"type":"MultiPolygon","coordinates":[[[[113.464941,22.904541],[113.520508,22.852051],[113.555273,22.804199],[113.563672,22.75791],[113.485645,22.82832],[113.463379,22.832373],[113.426074,22.858594],[113.404395,22.902832],[113.464941,22.904541]]],[[[112.782031,21.772266],[112.839063,21.764502],[112.862598,21.752637],[112.812598,21.712158],[112.800684,21.694873],[112.790234,21.601855],[112.771094,21.581836],[112.741992,21.618066],[112.733496,21.669922],[112.712695,21.697949],[112.760547,21.733252],[112.782031,21.772266]]],[[[112.558984,21.674756],[112.647656,21.710254],[112.64375,21.639648],[112.545605,21.618506],[112.525,21.623047],[112.558984,21.674756]]],[[[110.521582,21.083105],[110.539551,21.039014],[110.538867,21.018457],[110.503906,20.967725],[110.421875,21.006885],[110.339941,20.997754],[110.280957,21.001172],[110.264648,21.025195],[110.309863,21.074756],[110.385156,21.093164],[110.422363,21.058594],[110.521582,21.083105]]],[[[109.759375,21.560059],[109.91725,21.687152],[109.967221,21.866728],[110.142352,21.897449],[110.216146,21.874531],[110.355879,21.888974],[110.355466,22.10077],[110.333555,22.190455],[110.414119,22.198309],[110.466725,22.151],[110.642373,22.183452],[110.670796,22.267582],[110.774562,22.283653],[110.696995,22.368712],[110.754563,22.580172],[111.023797,22.63867],[111.066017,22.740576],[111.181462,22.748534],[111.277167,22.81853],[111.351219,22.908214],[111.410957,23.052598],[111.369978,23.139105],[111.362846,23.273024],[111.391217,23.431257],[111.4693,23.557916],[111.471005,23.613236],[111.601178,23.658014],[111.613735,23.759868],[111.657505,23.841697],[111.793311,23.849191],[111.807884,23.909239],[111.899144,23.990862],[111.869327,24.231829],[111.975936,24.276761],[112.047301,24.381458],[111.990922,24.465871],[112.005546,24.553075],[111.933251,24.601367],[111.932476,24.698286],[111.996554,24.735674],[112.066369,24.796575],[112.144762,24.793552],[112.164761,24.911994],[112.120991,24.949278],[112.182745,25.152574],[112.213957,25.200374],[112.458387,25.164252],[112.663335,25.113144],[112.714082,24.999508],[112.807823,24.942845],[112.988897,24.963929],[112.95877,25.056145],[112.969053,25.180582],[112.88911,25.241457],[112.917377,25.324863],[113.089769,25.41416],[113.217462,25.505575],[113.421635,25.3838],[113.523438,25.385583],[113.582452,25.325948],[113.713866,25.360907],[113.828071,25.356747],[113.927548,25.448111],[114.01209,25.435114],[114.026043,25.267657],[114.114978,25.30843],[114.278844,25.291816],[114.384367,25.335301],[114.429222,25.38597],[114.569317,25.406873],[114.580479,25.360054],[114.706932,25.289568],[114.683057,25.163451],[114.729307,25.118881],[114.548233,25.054466],[114.413513,24.97969],[114.383592,24.884683],[114.301633,24.758644],[114.192338,24.695263],[114.289386,24.595631],[114.424882,24.49959],[114.498107,24.55584],[114.641923,24.58527],[114.711582,24.554548],[114.74047,24.625241],[114.862684,24.587828],[114.944643,24.669967],[115.046963,24.706658],[115.139102,24.684153],[115.239664,24.746113],[115.420583,24.78456],[115.541144,24.68547],[115.599177,24.609067],[115.705785,24.545711],[115.799216,24.572738],[115.74909,24.74774],[115.787279,24.860912],[115.887531,24.916774],[116.035688,24.893571],[116.114701,24.846055],[116.372101,24.841301],[116.529559,24.615371],[116.603767,24.655834],[116.745308,24.670923],[116.748564,24.551499],[116.882406,24.393989],[116.967672,24.185113],[116.924832,24.0776],[117.036505,23.738267],[117.175049,23.615667],[117.148145,23.598779],[117.08252,23.57876],[117.032813,23.623437],[116.910645,23.64668],[116.860938,23.453076],[116.75957,23.38252],[116.712109,23.360498],[116.629395,23.353857],[116.682324,23.327393],[116.698828,23.277783],[116.669141,23.228174],[116.586426,23.218262],[116.538281,23.179688],[116.519824,23.006592],[116.470703,22.945898],[116.345508,22.941064],[116.251855,22.981348],[116.22207,22.949561],[116.206348,22.918652],[116.157422,22.887451],[116.062598,22.879102],[115.852148,22.801563],[115.755859,22.823926],[115.64043,22.853418],[115.561133,22.824707],[115.534668,22.765186],[115.49834,22.718848],[115.38252,22.718848],[115.289941,22.775977],[115.195801,22.817285],[115.091504,22.781689],[115.012109,22.708936],[114.914453,22.684619],[114.896387,22.639502],[114.853809,22.616797],[114.750391,22.626318],[114.711133,22.738721],[114.65166,22.755273],[114.592773,22.698437],[114.571973,22.654053],[114.544434,22.620605],[114.554199,22.528906],[114.496191,22.527051],[114.420117,22.583252],[114.340625,22.593213],[114.266016,22.540967],[114.228201,22.553947],[114.188204,22.565005],[114.122885,22.565005],[114.097873,22.551259],[114.050331,22.542991],[114.018291,22.51444],[114.015398,22.511908],[113.931152,22.531055],[113.82832,22.607227],[113.754492,22.733643],[113.661133,22.80166],[113.619629,22.861426],[113.603418,22.968896],[113.586328,23.02002],[113.592188,23.076953],[113.620508,23.12749],[113.519727,23.1021],[113.445312,23.055078],[113.460352,22.995703],[113.441895,22.940576],[113.331055,22.912012],[113.337793,22.888818],[113.344824,22.8646],[113.432031,22.789404],[113.449805,22.726123],[113.484766,22.692383],[113.553027,22.594043],[113.551465,22.40415],[113.588867,22.350488],[113.576465,22.297266],[113.548139,22.222623],[113.527055,22.245929],[113.494189,22.241537],[113.481063,22.217456],[113.478947,22.196088],[113.415723,22.178369],[113.367383,22.164844],[113.327734,22.14541],[113.266406,22.08877],[113.149023,22.075],[113.08877,22.207959],[113.008203,22.119336],[112.983789,21.938232],[112.953906,21.907324],[112.903809,21.881445],[112.808594,21.944629],[112.725391,21.902344],[112.660742,21.859473],[112.634082,21.819873],[112.586328,21.776855],[112.494727,21.818311],[112.421289,21.880615],[112.439453,21.927344],[112.429297,21.958105],[112.396094,21.981348],[112.359668,21.978027],[112.377441,21.91748],[112.389746,21.801221],[112.356445,21.767578],[112.30498,21.741699],[112.193359,21.763135],[112.117188,21.806494],[112.025195,21.843018],[111.943945,21.849658],[111.926465,21.77627],[111.873438,21.717139],[111.824609,21.709766],[111.775977,21.719238],[111.711914,21.655225],[111.681641,21.608496],[111.602734,21.559082],[111.392383,21.535107],[111.319141,21.486133],[111.220605,21.493896],[111.144238,21.482227],[111.100586,21.484717],[111.061133,21.510986],[111.016895,21.511719],[110.996777,21.430273],[110.878027,21.395947],[110.771094,21.386523],[110.652148,21.279102],[110.567187,21.214062],[110.504297,21.207422],[110.458008,21.230566],[110.43457,21.326904],[110.410937,21.338135],[110.397461,21.247705],[110.374609,21.172363],[110.331152,21.131348],[110.193555,21.037646],[110.154004,20.944629],[110.180371,20.858594],[110.36543,20.837598],[110.388477,20.790527],[110.370508,20.752051],[110.326172,20.719922],[110.313086,20.67168],[110.511523,20.518262],[110.517578,20.46001],[110.486914,20.426855],[110.449512,20.35542],[110.344727,20.294824],[110.123145,20.263721],[109.938477,20.295117],[109.88252,20.364063],[109.88584,20.413135],[109.931641,20.398877],[109.983887,20.403271],[109.968359,20.448145],[109.946387,20.474365],[109.861035,20.514307],[109.791992,20.621875],[109.805273,20.711475],[109.767383,20.780713],[109.72627,20.83877],[109.684766,20.873633],[109.662598,20.916895],[109.704492,21.052734],[109.68125,21.131641],[109.760156,21.228369],[109.77959,21.337451],[109.921094,21.376465],[109.930762,21.480566],[109.82959,21.483594],[109.759375,21.560059]]]]}}]}